CCSDS_OMM_VERS = 2.0
CREATION_DATE  = 
ORIGINATOR     = 

OBJECT_NAME    = KUIPER-00268
OBJECT_ID      = 2026-030AC
CENTER_NAME    = EARTH
REF_FRAME      = TEME
TIME_SYSTEM    = UTC
MEAN_ELEMENT_THEORY = SGP/SGP4

EPOCH          = 2026-03-05T14:13:20.440416
MEAN_MOTION    = 15.35822749
ECCENTRICITY   = .00025284
INCLINATION    = 51.8843
RA_OF_ASC_NODE = 238.8664
ARG_OF_PERICENTER = 35.6769
MEAN_ANOMALY   = 324.4386

EPHEMERIS_TYPE = 0
CLASSIFICATION_TYPE = U
NORAD_CAT_ID   = 67790
ELEMENT_SET_NO = 999
REV_AT_EPOCH   = 446
BSTAR          = .88438054E-3
MEAN_MOTION_DOT = .31045E-3
MEAN_MOTION_DDOT = 0

CCSDS_OMM_VERS = 2.0
CREATION_DATE  = 
ORIGINATOR     = 

OBJECT_NAME    = KUIPER-00270
OBJECT_ID      = 2026-030AD
CENTER_NAME    = EARTH
REF_FRAME      = TEME
TIME_SYSTEM    = UTC
MEAN_ELEMENT_THEORY = SGP/SGP4

EPOCH          = 2026-03-05T14:40:49.298016
MEAN_MOTION    = 15.34470037
ECCENTRICITY   = .0010111
INCLINATION    = 51.8813
RA_OF_ASC_NODE = 238.9800
ARG_OF_PERICENTER = 45.4905
MEAN_ANOMALY   = 314.6905

EPHEMERIS_TYPE = 0
CLASSIFICATION_TYPE = U
NORAD_CAT_ID   = 67791
ELEMENT_SET_NO = 999
REV_AT_EPOCH   = 446
BSTAR          = .71126809E-3
MEAN_MOTION_DOT = .23839E-3
MEAN_MOTION_DDOT = 0

CCSDS_OMM_VERS = 2.0
CREATION_DATE  = 
ORIGINATOR     = 

OBJECT_NAME    = KUIPER-00274
OBJECT_ID      = 2026-030AE
CENTER_NAME    = EARTH
REF_FRAME      = TEME
TIME_SYSTEM    = UTC
MEAN_ELEMENT_THEORY = SGP/SGP4

EPOCH          = 2026-03-05T15:19:06.032064
MEAN_MOTION    = 15.31109855
ECCENTRICITY   = .00178627
INCLINATION    = 51.8813
RA_OF_ASC_NODE = 239.1555
ARG_OF_PERICENTER = 60.7846
MEAN_ANOMALY   = 299.4922

EPHEMERIS_TYPE = 0
CLASSIFICATION_TYPE = U
NORAD_CAT_ID   = 67792
ELEMENT_SET_NO = 999
REV_AT_EPOCH   = 446
BSTAR          = -.24466121E-2
MEAN_MOTION_DOT = -.74636E-3
MEAN_MOTION_DDOT = 0

CCSDS_OMM_VERS = 2.0
CREATION_DATE  = 
ORIGINATOR     = 

OBJECT_NAME    = KUIPER-00275
OBJECT_ID      = 2026-030AF
CENTER_NAME    = EARTH
REF_FRAME      = TEME
TIME_SYSTEM    = UTC
MEAN_ELEMENT_THEORY = SGP/SGP4

EPOCH          = 2026-03-05T14:37:02.518752
MEAN_MOTION    = 15.34543548
ECCENTRICITY   = .00089431
INCLINATION    = 51.8843
RA_OF_ASC_NODE = 238.9719
ARG_OF_PERICENTER = 42.4924
MEAN_ANOMALY   = 317.6753

EPHEMERIS_TYPE = 0
CLASSIFICATION_TYPE = U
NORAD_CAT_ID   = 67793
ELEMENT_SET_NO = 999
REV_AT_EPOCH   = 446
BSTAR          = .70081916E-3
MEAN_MOTION_DOT = .2353E-3
MEAN_MOTION_DDOT = 0

CCSDS_OMM_VERS = 2.0
CREATION_DATE  = 
ORIGINATOR     = 

OBJECT_NAME    = KUIPER-00276
OBJECT_ID      = 2026-030AG
CENTER_NAME    = EARTH
REF_FRAME      = TEME
TIME_SYSTEM    = UTC
MEAN_ELEMENT_THEORY = SGP/SGP4

EPOCH          = 2026-03-05T13:50:45.881088
MEAN_MOTION    = 15.31329200
ECCENTRICITY   = .00190109
INCLINATION    = 51.8810
RA_OF_ASC_NODE = 239.4925
ARG_OF_PERICENTER = 54.8361
MEAN_ANOMALY   = 305.4401

EPHEMERIS_TYPE = 0
CLASSIFICATION_TYPE = U
NORAD_CAT_ID   = 67794
ELEMENT_SET_NO = 999
REV_AT_EPOCH   = 445
BSTAR          = .77093411E-3
MEAN_MOTION_DOT = .23499E-3
MEAN_MOTION_DDOT = 0

CCSDS_OMM_VERS = 2.0
CREATION_DATE  = 
ORIGINATOR     = 

OBJECT_NAME    = KUIPER-00279
OBJECT_ID      = 2026-030AH
CENTER_NAME    = EARTH
REF_FRAME      = TEME
TIME_SYSTEM    = UTC
MEAN_ELEMENT_THEORY = SGP/SGP4

EPOCH          = 2026-03-05T14:27:09.383616
MEAN_MOTION    = 15.35225492
ECCENTRICITY   = .00065069
INCLINATION    = 51.8805
RA_OF_ASC_NODE = 238.9179
ARG_OF_PERICENTER = 36.1727
MEAN_ANOMALY   = 323.9698

EPHEMERIS_TYPE = 0
CLASSIFICATION_TYPE = U
NORAD_CAT_ID   = 67795
ELEMENT_SET_NO = 999
REV_AT_EPOCH   = 446
BSTAR          = .73435292E-3
MEAN_MOTION_DOT = .25214E-3
MEAN_MOTION_DDOT = 0

CCSDS_OMM_VERS = 2.0
CREATION_DATE  = 
ORIGINATOR     = 

OBJECT_NAME    = CREW DRAGON 12
OBJECT_ID      = 2026-031A
CENTER_NAME    = EARTH
REF_FRAME      = TEME
TIME_SYSTEM    = UTC
MEAN_ELEMENT_THEORY = SGP/SGP4

EPOCH          = 2026-03-05T13:50:21.177600
MEAN_MOTION    = 15.48460413
ECCENTRICITY   = .00081549
INCLINATION    = 51.6316
RA_OF_ASC_NODE = 92.6910
ARG_OF_PERICENTER = 159.9772
MEAN_ANOMALY   = 200.1537

EPHEMERIS_TYPE = 0
CLASSIFICATION_TYPE = U
NORAD_CAT_ID   = 67796
ELEMENT_SET_NO = 999
REV_AT_EPOCH   = 55570
BSTAR          = .16617363E-3
MEAN_MOTION_DOT = .8552E-4
MEAN_MOTION_DDOT = 0

CCSDS_OMM_VERS = 2.0
CREATION_DATE  = 
ORIGINATOR     = 

OBJECT_NAME    = STARLINK-36800
OBJECT_ID      = 2026-032A
CENTER_NAME    = EARTH
REF_FRAME      = TEME
TIME_SYSTEM    = UTC
MEAN_ELEMENT_THEORY = SGP/SGP4

EPOCH          = 2026-03-05T13:32:30.019776
MEAN_MOTION    = 15.75232272
ECCENTRICITY   = .00016851
INCLINATION    = 97.2842
RA_OF_ASC_NODE = 250.8428
ARG_OF_PERICENTER = 80.0939
MEAN_ANOMALY   = 280.0517

EPHEMERIS_TYPE = 0
CLASSIFICATION_TYPE = U
NORAD_CAT_ID   = 67797
ELEMENT_SET_NO = 999
REV_AT_EPOCH   = 413
BSTAR          = .96675151E-3
MEAN_MOTION_DOT = .146843E-2
MEAN_MOTION_DDOT = 0

CCSDS_OMM_VERS = 2.0
CREATION_DATE  = 
ORIGINATOR     = 

OBJECT_NAME    = STARLINK-36798
OBJECT_ID      = 2026-032B
CENTER_NAME    = EARTH
REF_FRAME      = TEME
TIME_SYSTEM    = UTC
MEAN_ELEMENT_THEORY = SGP/SGP4

EPOCH          = 2026-03-05T14:00:01.999872
MEAN_MOTION    = 15.75189095
ECCENTRICITY   = .0001876
INCLINATION    = 97.2841
RA_OF_ASC_NODE = 250.9027
ARG_OF_PERICENTER = 79.2207
MEAN_ANOMALY   = 121.2630

EPHEMERIS_TYPE = 0
CLASSIFICATION_TYPE = U
NORAD_CAT_ID   = 67798
ELEMENT_SET_NO = 999
REV_AT_EPOCH   = 406
BSTAR          = -.70306629E-4
MEAN_MOTION_DOT = -.10604E-3
MEAN_MOTION_DDOT = 0

CCSDS_OMM_VERS = 2.0
CREATION_DATE  = 
ORIGINATOR     = 

OBJECT_NAME    = STARLINK-36804
OBJECT_ID      = 2026-032C
CENTER_NAME    = EARTH
REF_FRAME      = TEME
TIME_SYSTEM    = UTC
MEAN_ELEMENT_THEORY = SGP/SGP4

EPOCH          = 2026-03-05T13:29:57.560928
MEAN_MOTION    = 15.75225883
ECCENTRICITY   = .00016008
INCLINATION    = 97.2843
RA_OF_ASC_NODE = 250.8455
ARG_OF_PERICENTER = 78.7380
MEAN_ANOMALY   = 281.4065

EPHEMERIS_TYPE = 0
CLASSIFICATION_TYPE = U
NORAD_CAT_ID   = 67799
ELEMENT_SET_NO = 999
REV_AT_EPOCH   = 413
BSTAR          = .72655659E-3
MEAN_MOTION_DOT = .109816E-2
MEAN_MOTION_DDOT = 0

CCSDS_OMM_VERS = 2.0
CREATION_DATE  = 
ORIGINATOR     = 

OBJECT_NAME    = STARLINK-36354
OBJECT_ID      = 2026-032D
CENTER_NAME    = EARTH
REF_FRAME      = TEME
TIME_SYSTEM    = UTC
MEAN_ELEMENT_THEORY = SGP/SGP4

EPOCH          = 2026-03-05T14:00:01.999872
MEAN_MOTION    = 15.75211658
ECCENTRICITY   = .0001549
INCLINATION    = 97.2843
RA_OF_ASC_NODE = 250.8961
ARG_OF_PERICENTER = 87.1881
MEAN_ANOMALY   = 93.2823

EPHEMERIS_TYPE = 0
CLASSIFICATION_TYPE = U
NORAD_CAT_ID   = 67800
ELEMENT_SET_NO = 999
REV_AT_EPOCH   = 412
BSTAR          = -.19279144E-3
MEAN_MOTION_DOT = -.28816E-3
MEAN_MOTION_DDOT = 0

CCSDS_OMM_VERS = 2.0
CREATION_DATE  = 
ORIGINATOR     = 

OBJECT_NAME    = STARLINK-36773
OBJECT_ID      = 2026-032E
CENTER_NAME    = EARTH
REF_FRAME      = TEME
TIME_SYSTEM    = UTC
MEAN_ELEMENT_THEORY = SGP/SGP4

EPOCH          = 2026-03-05T13:25:23.068992
MEAN_MOTION    = 15.75263484
ECCENTRICITY   = .00015735
INCLINATION    = 97.2843
RA_OF_ASC_NODE = 250.8498
ARG_OF_PERICENTER = 64.1838
MEAN_ANOMALY   = 295.9590

EPHEMERIS_TYPE = 0
CLASSIFICATION_TYPE = U
NORAD_CAT_ID   = 67801
ELEMENT_SET_NO = 999
REV_AT_EPOCH   = 413
BSTAR          = .13895123E-2
MEAN_MOTION_DOT = .213055E-2
MEAN_MOTION_DDOT = 0

