KUIPER-00268            
1 67790U 26030AC  26064.59259769  .00031045  00000+0  88438-3 0  9996
2 67790  51.8843 238.8664 0002528  35.6769 324.4386 15.35822749  4460
KUIPER-00270            
1 67791U 26030AD  26064.61168169  .00023839  00000+0  71127-3 0  9992
2 67791  51.8813 238.9800 0010111  45.4905 314.6905 15.34470037  4465
KUIPER-00274            
1 67792U 26030AE  26064.63826426 -.00074636  00000+0 -24466-2 0  9998
2 67792  51.8813 239.1555 0017862  60.7846 299.4922 15.31109855  4463
KUIPER-00275            
1 67793U 26030AF  26064.60905693  .00023530  00000+0  70082-3 0  9991
2 67793  51.8843 238.9719 0008943  42.4924 317.6753 15.34543548  4469
KUIPER-00276            
1 67794U 26030AG  26064.57691992  .00023499  00000+0  77093-3 0  9995
2 67794  51.8810 239.4925 0019010  54.8361 305.4401 15.31329200  4456
KUIPER-00279            
1 67795U 26030AH  26064.60219194  .00025214  00000+0  73435-3 0  9993
2 67795  51.8805 238.9179 0006506  36.1727 323.9698 15.35225492  4467
CREW DRAGON 12          
1 67796U 26031A   26064.57663400  .00008552  00000+0  16617-3 0  9999
2 67796  51.6316  92.6910 0008154 159.9772 200.1537 15.48460413555700
STARLINK-36800          
1 67797U 26032A   26064.56423634  .00146843  00000+0  96675-3 0  9991
2 67797  97.2842 250.8428 0001685  80.0939 280.0517 15.75232272  4135
STARLINK-36798          
1 67798U 26032B   26064.58335648 -.00010604  00000+0 -70307-4 0  9993
2 67798  97.2841 250.9027 0001876  79.2207 121.2630 15.75189095  4069
STARLINK-36804          
1 67799U 26032C   26064.56247177  .00109816  00000+0  72656-3 0  9991
2 67799  97.2843 250.8455 0001600  78.7380 281.4065 15.75225883  4132
STARLINK-36354          
1 67800U 26032D   26064.58335648 -.00028816  00000+0 -19279-3 0  9991
2 67800  97.2843 250.8961 0001549  87.1881  93.2823 15.75211658  4124
STARLINK-36773          
1 67801U 26032E   26064.55929478  .00213055  00000+0  13895-2 0  9995
2 67801  97.2843 250.8498 0001573  64.1838 295.9590 15.75263484  4131
